[
  {
    "name": "ONEWEB-0371",
    "noradId": "49297",
    "line1": "1 49297U 21090U   26186.31007330  .00000004  00000+0 -22995-4 0  9998",
    "line2": "2 49297  87.9191 301.3580 0002013 103.2950 256.8407 13.19725039228840"
  },
  {
    "name": "ONEWEB-0372",
    "noradId": "49298",
    "line1": "1 49298U 21090V   26186.26804448  .00000102  00000+0  21821-3 0  9992",
    "line2": "2 49298  87.9195 270.8394 0002024 100.2561 259.8801 13.20773481232229"
  },
  {
    "name": "ONEWEB-0373",
    "noradId": "49299",
    "line1": "1 49299U 21090W   26186.29344225  .00000022  00000+0  21724-4 0  9992",
    "line2": "2 49299  87.9190 270.8342 0002104  97.9566 262.1806 13.20772589233416"
  },
  {
    "name": "ONEWEB-0374",
    "noradId": "49300",
    "line1": "1 49300U 21090X   26186.31087532 -.00000147  00000+0 -43025-3 0  9990",
    "line2": "2 49300  87.8977 286.0868 0001757  83.8673 276.2657 13.14502840229946"
  },
  {
    "name": "ONEWEB-0375",
    "noradId": "49301",
    "line1": "1 49301U 21090Y   26186.28166161  .00000005  00000+0 -19190-4 0  9992",
    "line2": "2 49301  87.9193 270.8286 0001873  82.9818 277.1528 13.20772128232916"
  },
  {
    "name": "ONEWEB-0376",
    "noradId": "49302",
    "line1": "1 49302U 21090Z   26186.30849638 -.00000062  00000+0 -18724-3 0  9998",
    "line2": "2 49302  87.9191 301.3582 0001912 106.5112 253.6231 13.19726320228846"
  },
  {
    "name": "ONEWEB-0377",
    "noradId": "49303",
    "line1": "1 49303U 21090AA  26186.26833612  .00000027  00000+0  35184-4 0  9998",
    "line2": "2 49303  87.9195 270.8333 0001993  93.3785 266.7576 13.20773043232908"
  },
  {
    "name": "ONEWEB-0378",
    "noradId": "49304",
    "line1": "1 49304U 21090AB  26186.28853955  .00000033  00000+0  48470-4 0  9992",
    "line2": "2 49304  87.9190 270.8333 0001905  97.0774 263.0576 13.20771813232178"
  },
  {
    "name": "ONEWEB-0379",
    "noradId": "49305",
    "line1": "1 49305U 21090AC  26186.30611929 -.00000143  00000+0 -42137-3 0  9996",
    "line2": "2 49305  87.8974 286.0981 0001900  98.3241 261.8104 13.14502206229949"
  },
  {
    "name": "ONEWEB-0380",
    "noradId": "49306",
    "line1": "1 49306U 21090AD  26186.30534751  .00000003  00000+0 -24828-4 0  9996",
    "line2": "2 49306  87.9184 301.3629 0002025  95.4797 264.6567 13.19726150228817"
  },
  {
    "name": "ONEWEB-0381",
    "noradId": "49307",
    "line1": "1 49307U 21090AE  26186.18906013  .00000103  00000+0  22041-3 0  9991",
    "line2": "2 49307  87.9193 270.8538 0001905  92.3250 267.8101 13.20772906232202"
  },
  {
    "name": "ONEWEB-0382",
    "noradId": "49308",
    "line1": "1 49308U 21090AF  26186.25136227  .00000041  00000+0  68276-4 0  9994",
    "line2": "2 49308  87.9193 270.8352 0001817  93.6221 266.5120 13.20771843232207"
  },
  {
    "name": "ONEWEB-0383",
    "noradId": "49309",
    "line1": "1 49309U 21090AG  26186.29977983 -.00000109  00000+0 -32764-3 0  9990",
    "line2": "2 49309  87.8978 286.0912 0001827  99.5495 260.5841 13.14502995229975"
  },
  {
    "name": "ONEWEB-0384",
    "noradId": "49310",
    "line1": "1 49310U 21090AH  26186.31518620  .00000030  00000+0  42694-4 0  9999",
    "line2": "2 49310  87.9195 270.8663 0001624  92.6384 267.4935 13.20813889232225"
  },
  {
    "name": "ONEWEB-0385",
    "noradId": "49311",
    "line1": "1 49311U 21090AJ  26186.24460544  .00000055  00000+0  10335-3 0  9996",
    "line2": "2 49311  87.9192 270.8421 0001901  95.2409 264.8941 13.20774043232181"
  },
  {
    "name": "ONEWEB-0386",
    "noradId": "49312",
    "line1": "1 49312U 21090AK  26186.26145497  .00000066  00000+0  12940-3 0  9992",
    "line2": "2 49312  87.9197 270.8304 0001817  95.8323 264.3017 13.20773049232201"
  }
]