{"fetched_at":"2026-07-06T08:46:38.495Z","source":"https://celestrak.org/NORAD/elements/gp.php?GROUP=oneweb&FORMAT=JSON","constellation":"oneweb","records":[{"OBJECT_NAME":"ONEWEB-0371","OBJECT_ID":"2021-090U","EPOCH":"2026-07-05T07:26:30.333120","CLASSIFICATION_TYPE":"U","MEAN_MOTION":13.19725039,"ECCENTRICITY":0.0002013,"INCLINATION":87.9191,"RA_OF_ASC_NODE":301.358,"ARG_OF_PERICENTER":103.295,"MEAN_ANOMALY":256.8407,"EPHEMERIS_TYPE":0,"NORAD_CAT_ID":49297,"ELEMENT_SET_NO":999,"REV_AT_EPOCH":22884,"BSTAR":-0.000022995,"MEAN_MOTION_DOT":4e-8,"MEAN_MOTION_DDOT":0},{"OBJECT_NAME":"ONEWEB-0372","OBJECT_ID":"2021-090V","EPOCH":"2026-07-05T06:25:59.043072","CLASSIFICATION_TYPE":"U","MEAN_MOTION":13.20773481,"ECCENTRICITY":0.0002024,"INCLINATION":87.9195,"RA_OF_ASC_NODE":270.8394,"ARG_OF_PERICENTER":100.2561,"MEAN_ANOMALY":259.8801,"EPHEMERIS_TYPE":0,"NORAD_CAT_ID":49298,"ELEMENT_SET_NO":999,"REV_AT_EPOCH":23222,"BSTAR":0.00021821,"MEAN_MOTION_DOT":0.00000102,"MEAN_MOTION_DDOT":0},{"OBJECT_NAME":"ONEWEB-0373","OBJECT_ID":"2021-090W","EPOCH":"2026-07-05T07:02:33.410400","CLASSIFICATION_TYPE":"U","MEAN_MOTION":13.20772589,"ECCENTRICITY":0.0002104,"INCLINATION":87.919,"RA_OF_ASC_NODE":270.8342,"ARG_OF_PERICENTER":97.9566,"MEAN_ANOMALY":262.1806,"EPHEMERIS_TYPE":0,"NORAD_CAT_ID":49299,"ELEMENT_SET_NO":999,"REV_AT_EPOCH":23341,"BSTAR":0.000021724,"MEAN_MOTION_DOT":2.2e-7,"MEAN_MOTION_DDOT":0},{"OBJECT_NAME":"ONEWEB-0374","OBJECT_ID":"2021-090X","EPOCH":"2026-07-05T07:27:39.627648","CLASSIFICATION_TYPE":"U","MEAN_MOTION":13.1450284,"ECCENTRICITY":0.0001757,"INCLINATION":87.8977,"RA_OF_ASC_NODE":286.0868,"ARG_OF_PERICENTER":83.8673,"MEAN_ANOMALY":276.2657,"EPHEMERIS_TYPE":0,"NORAD_CAT_ID":49300,"ELEMENT_SET_NO":999,"REV_AT_EPOCH":22994,"BSTAR":-0.00043025,"MEAN_MOTION_DOT":-0.00000147,"MEAN_MOTION_DDOT":0},{"OBJECT_NAME":"ONEWEB-0375","OBJECT_ID":"2021-090Y","EPOCH":"2026-07-05T06:45:35.563104","CLASSIFICATION_TYPE":"U","MEAN_MOTION":13.20772128,"ECCENTRICITY":0.0001873,"INCLINATION":87.9193,"RA_OF_ASC_NODE":270.8286,"ARG_OF_PERICENTER":82.9818,"MEAN_ANOMALY":277.1528,"EPHEMERIS_TYPE":0,"NORAD_CAT_ID":49301,"ELEMENT_SET_NO":999,"REV_AT_EPOCH":23291,"BSTAR":-0.00001919,"MEAN_MOTION_DOT":5e-8,"MEAN_MOTION_DDOT":0},{"OBJECT_NAME":"ONEWEB-0376","OBJECT_ID":"2021-090Z","EPOCH":"2026-07-05T07:24:14.087232","CLASSIFICATION_TYPE":"U","MEAN_MOTION":13.1972632,"ECCENTRICITY":0.0001912,"INCLINATION":87.9191,"RA_OF_ASC_NODE":301.3582,"ARG_OF_PERICENTER":106.5112,"MEAN_ANOMALY":253.6231,"EPHEMERIS_TYPE":0,"NORAD_CAT_ID":49302,"ELEMENT_SET_NO":999,"REV_AT_EPOCH":22884,"BSTAR":-0.00018724,"MEAN_MOTION_DOT":-6.2e-7,"MEAN_MOTION_DDOT":0},{"OBJECT_NAME":"ONEWEB-0377","OBJECT_ID":"2021-090AA","EPOCH":"2026-07-05T06:26:24.240768","CLASSIFICATION_TYPE":"U","MEAN_MOTION":13.20773043,"ECCENTRICITY":0.0001993,"INCLINATION":87.9195,"RA_OF_ASC_NODE":270.8333,"ARG_OF_PERICENTER":93.3785,"MEAN_ANOMALY":266.7576,"EPHEMERIS_TYPE":0,"NORAD_CAT_ID":49303,"ELEMENT_SET_NO":999,"REV_AT_EPOCH":23290,"BSTAR":0.000035184,"MEAN_MOTION_DOT":2.7e-7,"MEAN_MOTION_DDOT":0},{"OBJECT_NAME":"ONEWEB-0378","OBJECT_ID":"2021-090AB","EPOCH":"2026-07-05T06:55:29.817120","CLASSIFICATION_TYPE":"U","MEAN_MOTION":13.20771813,"ECCENTRICITY":0.0001905,"INCLINATION":87.919,"RA_OF_ASC_NODE":270.8333,"ARG_OF_PERICENTER":97.0774,"MEAN_ANOMALY":263.0576,"EPHEMERIS_TYPE":0,"NORAD_CAT_ID":49304,"ELEMENT_SET_NO":999,"REV_AT_EPOCH":23217,"BSTAR":0.00004847,"MEAN_MOTION_DOT":3.3e-7,"MEAN_MOTION_DDOT":0},{"OBJECT_NAME":"ONEWEB-0379","OBJECT_ID":"2021-090AC","EPOCH":"2026-07-05T07:20:48.706656","CLASSIFICATION_TYPE":"U","MEAN_MOTION":13.14502206,"ECCENTRICITY":0.00019,"INCLINATION":87.8974,"RA_OF_ASC_NODE":286.0981,"ARG_OF_PERICENTER":98.3241,"MEAN_ANOMALY":261.8104,"EPHEMERIS_TYPE":0,"NORAD_CAT_ID":49305,"ELEMENT_SET_NO":999,"REV_AT_EPOCH":22994,"BSTAR":-0.00042137,"MEAN_MOTION_DOT":-0.00000143,"MEAN_MOTION_DDOT":0},{"OBJECT_NAME":"ONEWEB-0380","OBJECT_ID":"2021-090AD","EPOCH":"2026-07-05T07:19:42.024864","CLASSIFICATION_TYPE":"U","MEAN_MOTION":13.1972615,"ECCENTRICITY":0.0002025,"INCLINATION":87.9184,"RA_OF_ASC_NODE":301.3629,"ARG_OF_PERICENTER":95.4797,"MEAN_ANOMALY":264.6567,"EPHEMERIS_TYPE":0,"NORAD_CAT_ID":49306,"ELEMENT_SET_NO":999,"REV_AT_EPOCH":22881,"BSTAR":-0.000024828,"MEAN_MOTION_DOT":3e-8,"MEAN_MOTION_DDOT":0},{"OBJECT_NAME":"ONEWEB-0381","OBJECT_ID":"2021-090AE","EPOCH":"2026-07-05T04:32:14.795232","CLASSIFICATION_TYPE":"U","MEAN_MOTION":13.20772906,"ECCENTRICITY":0.0001905,"INCLINATION":87.9193,"RA_OF_ASC_NODE":270.8538,"ARG_OF_PERICENTER":92.325,"MEAN_ANOMALY":267.8101,"EPHEMERIS_TYPE":0,"NORAD_CAT_ID":49307,"ELEMENT_SET_NO":999,"REV_AT_EPOCH":23220,"BSTAR":0.00022041,"MEAN_MOTION_DOT":0.00000103,"MEAN_MOTION_DDOT":0},{"OBJECT_NAME":"ONEWEB-0382","OBJECT_ID":"2021-090AF","EPOCH":"2026-07-05T06:01:57.700128","CLASSIFICATION_TYPE":"U","MEAN_MOTION":13.20771843,"ECCENTRICITY":0.0001817,"INCLINATION":87.9193,"RA_OF_ASC_NODE":270.8352,"ARG_OF_PERICENTER":93.6221,"MEAN_ANOMALY":266.512,"EPHEMERIS_TYPE":0,"NORAD_CAT_ID":49308,"ELEMENT_SET_NO":999,"REV_AT_EPOCH":23220,"BSTAR":0.000068276,"MEAN_MOTION_DOT":4.1e-7,"MEAN_MOTION_DDOT":0},{"OBJECT_NAME":"ONEWEB-0383","OBJECT_ID":"2021-090AG","EPOCH":"2026-07-05T07:11:40.977312","CLASSIFICATION_TYPE":"U","MEAN_MOTION":13.14502995,"ECCENTRICITY":0.0001827,"INCLINATION":87.8978,"RA_OF_ASC_NODE":286.0912,"ARG_OF_PERICENTER":99.5495,"MEAN_ANOMALY":260.5841,"EPHEMERIS_TYPE":0,"NORAD_CAT_ID":49309,"ELEMENT_SET_NO":999,"REV_AT_EPOCH":22997,"BSTAR":-0.00032764,"MEAN_MOTION_DOT":-0.00000109,"MEAN_MOTION_DDOT":0},{"OBJECT_NAME":"ONEWEB-0384","OBJECT_ID":"2021-090AH","EPOCH":"2026-07-05T07:33:52.087680","CLASSIFICATION_TYPE":"U","MEAN_MOTION":13.20813889,"ECCENTRICITY":0.0001624,"INCLINATION":87.9195,"RA_OF_ASC_NODE":270.8663,"ARG_OF_PERICENTER":92.6384,"MEAN_ANOMALY":267.4935,"EPHEMERIS_TYPE":0,"NORAD_CAT_ID":49310,"ELEMENT_SET_NO":999,"REV_AT_EPOCH":23222,"BSTAR":0.000042694,"MEAN_MOTION_DOT":3e-7,"MEAN_MOTION_DDOT":0},{"OBJECT_NAME":"ONEWEB-0385","OBJECT_ID":"2021-090AJ","EPOCH":"2026-07-05T05:52:13.910016","CLASSIFICATION_TYPE":"U","MEAN_MOTION":13.20774043,"ECCENTRICITY":0.0001901,"INCLINATION":87.9192,"RA_OF_ASC_NODE":270.8421,"ARG_OF_PERICENTER":95.2409,"MEAN_ANOMALY":264.8941,"EPHEMERIS_TYPE":0,"NORAD_CAT_ID":49311,"ELEMENT_SET_NO":999,"REV_AT_EPOCH":23218,"BSTAR":0.00010335,"MEAN_MOTION_DOT":5.5e-7,"MEAN_MOTION_DDOT":0},{"OBJECT_NAME":"ONEWEB-0386","OBJECT_ID":"2021-090AK","EPOCH":"2026-07-05T06:16:29.709408","CLASSIFICATION_TYPE":"U","MEAN_MOTION":13.20773049,"ECCENTRICITY":0.0001817,"INCLINATION":87.9197,"RA_OF_ASC_NODE":270.8304,"ARG_OF_PERICENTER":95.8323,"MEAN_ANOMALY":264.3017,"EPHEMERIS_TYPE":0,"NORAD_CAT_ID":49312,"ELEMENT_SET_NO":999,"REV_AT_EPOCH":23220,"BSTAR":0.0001294,"MEAN_MOTION_DOT":6.6e-7,"MEAN_MOTION_DDOT":0}]}
